HULIANWANG DIGUI-129    
1 67237U 25311B   26064.15198920 -.00000046  00000+0  15993-3 0  9990
2 67237  50.0014 128.7465 0001465 247.1750 112.8969 13.33710308  9501
HULIANWANG DIGUI-130    
1 67238U 25311C   26064.19957838 -.00000047  00000+0  16145-3 0  9997
2 67238  50.0191 128.9830 0004180 287.6647  72.3770 13.32173878  9501
HULIANWANG DIGUI-131    
1 67239U 25311D   26064.20762559 -.00000046  00000+0  16162-3 0  9992
2 67239  50.0041 129.0155 0000452 272.5117  87.5705 13.32648443  9502
HULIANWANG DIGUI-132    
1 67240U 25311E   26064.18350155 -.00000062  00000+0  12931-3 0  9994
2 67240  49.9885 128.8874 0002526 138.7085 221.3980 13.32619126  9502
HULIANWANG DIGUI-133    
1 67241U 25311F   26064.16767986 -.00000049  00000+0  15590-3 0  9996
2 67241  50.0027 128.8468 0001451 215.0729 145.0049 13.33288475  9501
HULIANWANG DIGUI-134    
1 67242U 25311G   26064.10075425 -.00000052  00000+0  14932-3 0  9994
2 67242  50.0021 129.1237 0000698 307.4974  52.5837 13.33256797  9491
HULIANWANG DIGUI-135    
1 67243U 25311H   26064.19154850 -.00000056  00000+0  14166-3 0  9997
2 67243  50.0052 128.9176 0003290 218.5669 141.4970 13.32830323  9509
HULIANWANG DIGUI-136    
1 67244U 25311J   26063.71017034 -.00000050  00000+0  15258-3 0  9994
2 67244  50.0081 130.4255 0000697 327.5935  32.4896 13.33731004  9449
HULIANWANG DIGUI-137    
1 67435U 26007A   26062.29512125 -.00000025  00000+0  17791-3 0  9998
2 67435  50.0080 106.1504 0001749 116.8856 243.2202 13.44406338  6695
HULIANWANG DIGUI-138    
1 67436U 26007B   26062.30877377 -.00000028  00000+0  17503-3 0  9998
2 67436  50.0071 106.2207 0000593 208.7560 151.3286 13.43759555  6698
HULIANWANG DIGUI-139    
1 67437U 26007C   26064.08789994 -.00000007  00000+0  21557-3 0  9994
2 67437  50.0424  99.6398 0008849 294.9042  65.0916 13.41969024  6931
HULIANWANG DIGUI-140    
1 67438U 26007D   26062.31585352 -.00000014  00000+0  19847-3 0  9998
2 67438  50.0067 106.2628 0000613 210.9682 149.1160 13.43527498  6690
HULIANWANG DIGUI-141    
1 67439U 26007E   26062.28868162 -.00000024  00000+0  17960-3 0  9993
2 67439  50.0174 106.0944 0000967 218.2307 141.8504 13.44477953  6698
HULIANWANG DIGUI-142    
1 67440U 26007F   26063.39753489 -.00000107  00000+0  38929-4 0  9994
2 67440  50.0104 102.0096 0003260 327.4413  32.6264 13.43451065  6849
HULIANWANG DIGUI-143    
1 67441U 26007G   26062.27569739 -.00000027  00000+0  17428-3 0  9995
2 67441  50.0133 106.0859 0001458 312.0229  48.0526 13.44825453  6697
HULIANWANG DIGUI-144    
1 67442U 26007H   26064.50016281 -.00000036  00000+0  16263-3 0  9999
2 67442  50.0071  97.8502 0004146  13.3457 346.7530 13.42454129  6994
